#dP2020  2 29  0  0  0.00000000      96 __u+U ITR00 FIT  IAC
## 2094 518400.00000000   900.00000000 58908 0.0000000000000
+  112   C01C03C04C06C07C08C09C10C11C12C13C14C16C19C20C21C22
+        C23C24C25C26C27C28C29C30C32C33C34C35C36C37E01E02E03
+        E04E05E07E08E09E11E12E13E14E15E18E19E21E24E25E26E27
+        E30E31E33E36G01G02G03G04G05G06G07G08G09G10G11G12G13
+        G14G15G16G17G18G19G20G21G22G23G24G25G26G27G28G29G30
+        G31G32J01J02J03R01R02R03R04R05R07R08R09R11R12R13R14
+        R15R16R17R18R19R20R21R22R23R26  0  0  0  0  0  0  0
++        13 13 13  8  8  9  8  8  8  8  8  7  8  8  8  7  8
++         8  8  8  8  8  7  8  8  8  8  8  8  8  8  5  4  4
++         5  4  4  4  4  5  5  5  5  4  4  5  4  5  5  5  5
++         4  5  4  5  3  4  3  3  4  3  3  3  3  3  3  3  4
++         3  4  4  3  4  3  3  3  3  3  3  3  3  3  3  3  3
++         3  3  9  9  8  6  6  6  6  5  5  5  6  5  5  6  5
++         5  6  5  6  6  6  6  5  5  8  0  0  0  0  0  0  0
%c M  cc GPS ccc cccc cccc cccc cccc ccccc ccccc ccccc ccccc
%c cc cc ccc ccc cccc cccc cccc cccc ccccc ccccc ccccc ccccc
%f  0.0000000  0.000000000  0.00000000000  0.000000000000000
%f  0.0000000  0.000000000  0.00000000000  0.000000000000000
%i    0    0    0    0      0      0      0      0         0
%i    0    0    0    0      0      0      0      0         0
/* INFORMATION & ANALYSIS CENTER (IAC)            RAPID DATA
/* S/V CLOCKS ARE ALIGNED TO GNSS TIME                      
/* G:C1WC2W R:C1PC2P E:C1XC5X C:C2IC6I J:C1CC2S             
/* PCV:IGS14_2091 OL/AL:FES2004  NONE     YN ORB:CoN CLK:CoN
*  2020 02 29 13 15  0.00000000
PC01 -32302.899953  27070.046151    881.464024    257.631267
PC03 -14853.551557  39430.070269    697.112794    -80.644753
PC04 -39583.681693  14489.556357    695.871829    -62.374247
PC06 -17816.524234  20966.225518 -31680.283867    242.102909
PC07 -20423.314220  36491.342778   2703.143117   -108.368159
PC08  -5368.111812  30131.605405  29246.305229   -136.455383
PC09  -2173.631885  24325.442542 -34119.266069    368.184676
PC10  -9858.542806  38080.190175  14778.044256   -708.678174
PC11  -3402.069404  15174.363008  23238.138790   -211.896373
PC12 -21107.661630   3784.941454  17885.346471    325.009159
PC13   4582.365932  37641.508764  18798.686876    295.458263
PC14 -12708.137809  21158.743924 -12939.604607    194.544663
PC16 -13007.332605  22153.194108 -33437.959155   -751.766699
PC19   3717.798975 -19820.873572  19321.083321    338.643591
PC20  19271.840704 -19496.367974   5314.386684   -788.112404
PC21 -23877.273780   7452.324951  12373.322759   -124.561111
PC22 -14271.569859  -8670.966768  22360.184336   -893.316023
PC23  13188.835501  19235.148091  15323.907293   -905.880400
PC24  -9891.257730  19789.719824 -17035.959548   -925.357069
PC25   3330.560493  27704.580252   -857.645167   -532.635721
PC26 -16077.366827   1540.683646 -22763.657154    589.045263
PC27  25601.713454   3296.280420 -10585.607494    286.753581
PC28  22372.964174  15151.236244   6988.908324    277.696477
PC29  -6769.800698 -17851.058719 -20357.038424    194.221084
PC30  13705.649742 -10787.919478 -21775.055500    279.240113
PC32  23833.969712  -7676.442313 -12310.357534   -882.550778
PC33  -3670.504170  19858.357324 -19244.417458   -934.430897
PC34 -13403.019930  11009.641596  21865.887710   -509.535729
PC35 -22812.396210 -14461.142553  -7088.867792   -927.743015
PC36  -2527.178956 -27771.465539   1086.224345   -825.485991
PC37  16182.094211   -388.111717  22745.382119   -868.781852
PE01 -13522.662388 -10527.211694 -24137.147287   -804.954014
PE02  13545.537428  10469.577594  24144.109776    116.104683
PE03  24100.301202   6243.749171 -16021.611572   -271.623997
PE04 -28651.179353   7330.860354  -1259.701297   -475.587959
PE05   5352.356954  16318.412155 -24107.935219   -401.265617
PE07  16388.719828 -16790.059238  18056.640682   -347.689538
PE08  28563.667029  -7650.791805   1459.505089   6213.442575
PE09 -16207.061392  16809.275874 -18180.752665   6140.713539
PE11  -5187.522327  17185.572402  23533.731463   1497.322379
PE12 -20109.054196   -422.690842  21734.803485   5927.467919
PE13   5259.469469 -16999.681515 -23643.225218    398.805204
PE14 -14976.442270 -18522.738315 -20089.905839   -923.104306
PE15  19940.180059    180.079302 -21857.992023    875.609518
PE18  23035.964807   9517.918929   7458.502605  -1020.814118
PE19 -22621.114563  -7505.900009  17559.199877     -1.328211
PE21  -1358.097714 -26222.727481 -13664.228432   -585.348138
PE24 -11990.276183  26608.131276  -5039.802861   5584.877738
PE25   1269.432997  26282.778358  13563.868511   -505.316977
PE26 -12548.672855 -24348.084897 -11209.778157   3473.564888
PE27  11767.902586 -26701.552812   4938.317578    272.154709
PE30  18026.509797 -11180.934767  20624.952393   4104.729597
PE31 -17924.204633  11508.359699 -20553.269211   -471.861820
PE33 -22936.529810 -17260.432061   7260.055899   -469.936805
PE36  12490.817463  24210.433313  11577.721595    592.086689
PG01 -17313.110712  -6322.792508  19040.483568   -310.597330
PG02  13721.873966  22755.488771   -583.875881   -413.536721
PG03 -18838.475914   6398.345330  17491.302176   -106.130124
PG04 -26364.069765   -203.624431  -3325.893010    -55.673668
PG05   8507.744329  14318.799664 -20781.252152     -8.360804
PG06   5301.696596  24394.843665   9066.023786   -220.116846
PG07 -10503.213025  12186.408664 -20761.017067   -225.272411
PG08 -24697.505389  -6507.528865  -7717.255729    -25.460714
PG09 -21906.900700   8015.495978 -12773.747000   -166.322033
PG10  10377.012634 -23512.792595   6279.220110   -261.620687
PG11 -22903.961647 -11241.057768   6317.616535   -347.390375
PG12  18132.469771  -2677.487586  18928.262214    145.921064
PG13  18953.277385  13068.859880 -13439.307579     -9.293918
PG14  -5457.397751 -15690.418167  21095.432082    -29.364408
PG15  25434.956789   4489.334646  -7298.472201   -248.226710
PG16  -6995.216679 -14249.934351 -21421.712400   -129.801567
PG17  -6058.063212  14068.948714  22117.879662    224.199417
PG18 -18303.491580 -13719.156869  13063.986467      4.936370
PG19   2749.885686  14982.406622  21464.505337   -192.138001
PG20  15010.633913 -21063.991769  -5609.915331    527.876256
PG21   7883.181082 -14719.315021 -19922.910986    -34.293626
PG22 -16509.998742  -2327.414578  20876.050264   -785.203138
PG23 -26461.758791   1386.198083  -3413.735620   -133.003246
PG24  18800.129716   7402.607243  17224.539702     -9.738031
PG25  18961.569869 -14452.791611  11177.781713    -11.221649
PG26   -117.888895 -21280.079174 -15782.066372    158.158132
PG27 -17011.796016 -12269.547603 -16617.080150   -225.087852
PG28 -11104.324173  22858.153951   8550.198599    736.086135
PG29  23201.794133  -4931.897311 -12001.020662    -44.992065
PG30  -2523.862883  21511.225793 -15208.317752   -164.532364
PG31  -6529.121294 -24701.402997   6277.350401    -26.379183
PG32   4573.213909 -14934.248583  21538.091277    224.647466
PJ01 -33810.201343  24231.257622  -2125.572084   -326.328477
PJ02 -21643.759434  29868.277602 -15936.569671     -1.598159
PJ03 -28822.260524  22849.482963  25668.147559     -0.791421
PR01 -14684.895242  -3502.960515  20557.878965     57.831647
PR02 -23370.935696   9549.780474   3884.805121    414.373101
PR03 -15896.026019  14988.093135 -13166.580848     10.746624
PR04    523.900182  11643.886588 -22663.598678     40.388986
PR05  16599.449972   1801.340477 -19265.298903     45.885353
PR07  15363.300461 -15012.216391  13760.085566    -33.796995
PR08   -577.826824 -11773.562612  22671.661901    -50.774008
PR09  10499.322487 -11749.682022  20090.686916    119.375867
PR11  -2763.809603 -23929.748137  -8443.923390    -15.123020
PR12  -9199.271241 -11555.737081 -20767.481181    109.910972
PR13 -10692.351922   8195.267125 -21682.822632    -35.438621
PR14  -5986.983702  22820.510040  -9682.845896     48.643387
PR15   2208.994663  24228.500568   7694.406584    106.035279
PR16   9667.272001  11086.668461  20847.165235     -1.786622
PR17  -4979.759522   9405.105735  23197.083367    305.089027
PR18  10916.532438  16191.487426  16395.549363     26.823032
PR19  20578.508557  15030.876076   1099.833260    -81.458134
PR20  18592.511471   3804.303915 -17003.836607   -405.358894
PR21   4157.603415  -9821.389634 -23164.173223   -108.119909
PR22 -13243.747880 -16621.310988 -14192.610981    -15.948080
PR23 -21939.758394 -11813.037636   5473.151204    289.526234
PR26  20547.571895   6400.733538 -13694.494161   -405.335344
EOF
